{
  "type": "FeatureCollection",
  "features": [
    {
      "type": "Feature",
      "properties": {
        "norad_id": 29968,
        "name": "FENGYUN 1C DEB",
        "group": "fengyun-1c-debris",
        "lat": -71.23814831297634,
        "lon": 127.51849441177033,
        "alt_km": 894.2873854113559,
        "timestamp": "2025-12-10T20:49:52.826362+00:00",
        "meta_object_name": "FENGYUN 1C DEB",
        "meta_object_id": "1999-025KS",
        "meta_epoch": "2025-12-10T11:39:08.083008",
        "meta_mean_motion": 14.07254644,
        "meta_eccentricity": 0.00901882,
        "meta_inclination": 98.8044,
        "meta_ra_of_asc_node": 334.2919,
        "meta_arg_of_pericenter": 1.1111,
        "meta_mean_anomaly": 116.69,
        "meta_ephemeris_type": 0,
        "meta_classification_type": "U",
        "meta_norad_cat_id": 29968,
        "meta_element_set_no": 999,
        "meta_rev_at_epoch": 97017,
        "meta_bstar": 0.00036953066,
        "meta_mean_motion_dot": 6e-06,
        "meta_mean_motion_ddot": 0,
        "tle_line1": "1 29968U 99025KS  25344.48551022  .00000600  00000+0  36953-3 0  9998",
        "tle_line2": "2 29968  98.8044 334.2919 0090188   1.1111 116.6900 14.07254644970175"
      },
      "geometry": {
        "type": "Point",
        "coordinates": [
          127.51849441177033,
          -71.23814831297634
        ]
      }
    },
    {
      "type": "Feature",
      "properties": {
        "norad_id": 29969,
        "name": "FENGYUN 1C DEB",
        "group": "fengyun-1c-debris",
        "lat": 41.820376456102856,
        "lon": -102.91035692479385,
        "alt_km": 772.9040713515105,
        "timestamp": "2025-12-10T20:49:52.826373+00:00",
        "meta_object_name": "FENGYUN 1C DEB",
        "meta_object_id": "1999-025KT",
        "meta_epoch": "2025-12-10T05:22:13.382400",
        "meta_mean_motion": 14.33180412,
        "meta_eccentricity": 0.0041882,
        "meta_inclination": 98.7704,
        "meta_ra_of_asc_node": 68.4978,
        "meta_arg_of_pericenter": 58.2818,
        "meta_mean_anomaly": 356.8635,
        "meta_ephemeris_type": 0,
        "meta_classification_type": "U",
        "meta_norad_cat_id": 29969,
        "meta_element_set_no": 999,
        "meta_rev_at_epoch": 97626,
        "meta_bstar": 0.0025502,
        "meta_mean_motion_dot": 7.035e-05,
        "meta_mean_motion_ddot": 0,
        "tle_line1": "1 29969U 99025KT  25344.22376600  .00007035  00000+0  25502-2 0  9994",
        "tle_line2": "2 29969  98.7704  68.4978 0041882  58.2818 356.8635 14.33180412976262"
      },
      "geometry": {
        "type": "Point",
        "coordinates": [
          -102.91035692479385,
          41.820376456102856
        ]
      }
    },
    {
      "type": "Feature",
      "properties": {
        "norad_id": 29970,
        "name": "FENGYUN 1C DEB",
        "group": "fengyun-1c-debris",
        "lat": -81.12562460116969,
        "lon": -3.6455602129279603,
        "alt_km": 738.7615395503635,
        "timestamp": "2025-12-10T20:49:52.826383+00:00",
        "meta_object_name": "FENGYUN 1C DEB",
        "meta_object_id": "1999-025KU",
        "meta_epoch": "2025-12-10T15:09:44.254080",
        "meta_mean_motion": 14.43942024,
        "meta_eccentricity": 0.0090635,
        "meta_inclination": 98.808,
        "meta_ra_of_asc_node": 272.8702,
        "meta_arg_of_pericenter": 193.8202,
        "meta_mean_anomaly": 289.047,
        "meta_ephemeris_type": 0,
        "meta_classification_type": "U",
        "meta_norad_cat_id": 29970,
        "meta_element_set_no": 999,
        "meta_rev_at_epoch": 99090,
        "meta_bstar": 0.00069886229,
        "meta_mean_motion_dot": 2.458e-05,
        "meta_mean_motion_ddot": 0,
        "tle_line1": "1 29970U 99025KU  25344.63176220  .00002458  00000+0  69886-3 0  9995",
        "tle_line2": "2 29970  98.8080 272.8702 0090635 193.8202 289.0470 14.43942024990908"
      },
      "geometry": {
        "type": "Point",
        "coordinates": [
          -3.6455602129279603,
          -81.12562460116969
        ]
      }
    },
    {
      "type": "Feature",
      "properties": {
        "norad_id": 29971,
        "name": "FENGYUN 1C DEB",
        "group": "fengyun-1c-debris",
        "lat": 60.54553070965931,
        "lon": 8.976550048885885,
        "alt_km": 831.8194480871744,
        "timestamp": "2025-12-10T20:49:52.826393+00:00",
        "meta_object_name": "FENGYUN 1C DEB",
        "meta_object_id": "1999-025KV",
        "meta_epoch": "2025-12-10T14:28:48.055872",
        "meta_mean_motion": 14.18167887,
        "meta_eccentricity": 0.00237662,
        "meta_inclination": 98.6833,
        "meta_ra_of_asc_node": 24.4183,
        "meta_arg_of_pericenter": 173.8276,
        "meta_mean_anomaly": 337.8959,
        "meta_ephemeris_type": 0,
        "meta_classification_type": "U",
        "meta_norad_cat_id": 29971,
        "meta_element_set_no": 999,
        "meta_rev_at_epoch": 97309,
        "meta_bstar": 0.0011866338,
        "meta_mean_motion_dot": 2.402e-05,
        "meta_mean_motion_ddot": 0,
        "tle_line1": "1 29971U 99025KV  25344.60333398  .00002402  00000+0  11866-2 0  9997",
        "tle_line2": "2 29971  98.6833  24.4183 0023766 173.8276 337.8959 14.18167887973090"
      },
      "geometry": {
        "type": "Point",
        "coordinates": [
          8.976550048885885,
          60.54553070965931
        ]
      }
    },
    {
      "type": "Feature",
      "properties": {
        "norad_id": 29972,
        "name": "FENGYUN 1C DEB",
        "group": "fengyun-1c-debris",
        "lat": -76.88118604188352,
        "lon": 134.42943676835296,
        "alt_km": 701.3706747965325,
        "timestamp": "2025-12-10T20:49:52.826403+00:00",
        "meta_object_name": "FENGYUN 1C DEB",
        "meta_object_id": "1999-025KW",
        "meta_epoch": "2025-12-10T00:07:22.882944",
        "meta_mean_motion": 14.66284053,
        "meta_eccentricity": 0.00650875,
        "meta_inclination": 98.9217,
        "meta_ra_of_asc_node": 355.8722,
        "meta_arg_of_pericenter": 20.7847,
        "meta_mean_anomaly": 8.1959,
        "meta_ephemeris_type": 0,
        "meta_classification_type": "U",
        "meta_norad_cat_id": 29972,
        "meta_element_set_no": 999,
        "meta_rev_at_epoch": 99446,
        "meta_bstar": 0.0017733713,
        "meta_mean_motion_dot": 0.00010045,
        "meta_mean_motion_ddot": 0,
        "tle_line1": "1 29972U 99025KW  25344.00512596  .00010045  00000+0  17734-2 0  9993",
        "tle_line2": "2 29972  98.9217 355.8722 0065087  20.7847   8.1959 14.66284053994466"
      },
      "geometry": {
        "type": "Point",
        "coordinates": [
          134.42943676835296,
          -76.88118604188352
        ]
      }
    },
    {
      "type": "Feature",
      "properties": {
        "norad_id": 29973,
        "name": "FENGYUN 1C DEB",
        "group": "fengyun-1c-debris",
        "lat": 80.91429380057302,
        "lon": -117.84258646051218,
        "alt_km": 843.551517358931,
        "timestamp": "2025-12-10T20:49:52.826413+00:00",
        "meta_object_name": "FENGYUN 1C DEB",
        "meta_object_id": "1999-025KX",
        "meta_epoch": "2025-12-09T06:54:34.318080",
        "meta_mean_motion": 14.0652646,
        "meta_eccentricity": 0.0059163,
        "meta_inclination": 98.8424,
        "meta_ra_of_asc_node": 343.8592,
        "meta_arg_of_pericenter": 158.6196,
        "meta_mean_anomaly": 217.7611,
        "meta_ephemeris_type": 0,
        "meta_classification_type": "U",
        "meta_norad_cat_id": 29973,
        "meta_element_set_no": 999,
        "meta_rev_at_epoch": 96670,
        "meta_bstar": 0.0011262,
        "meta_mean_motion_dot": 1.851e-05,
        "meta_mean_motion_ddot": 0,
        "tle_line1": "1 29973U 99025KX  25343.28789720  .00001851  00000+0  11262-2 0  9993",
        "tle_line2": "2 29973  98.8424 343.8592 0059163 158.6196 217.7611 14.06526460966708"
      },
      "geometry": {
        "type": "Point",
        "coordinates": [
          -117.84258646051218,
          80.91429380057302
        ]
      }
    },
    {
      "type": "Feature",
      "properties": {
        "norad_id": 29974,
        "name": "FENGYUN 1C DEB",
        "group": "fengyun-1c-debris",
        "lat": -73.19512678253837,
        "lon": -142.1803874663544,
        "alt_km": 883.314922155826,
        "timestamp": "2025-12-10T20:49:52.826423+00:00",
        "meta_object_name": "FENGYUN 1C DEB",
        "meta_object_id": "1999-025KY",
        "meta_epoch": "2025-12-10T04:38:41.292672",
        "meta_mean_motion": 14.14829732,
        "meta_eccentricity": 0.00469139,
        "meta_inclination": 98.8935,
        "meta_ra_of_asc_node": 68.3764,
        "meta_arg_of_pericenter": 89.3474,
        "meta_mean_anomaly": 332.929,
        "meta_ephemeris_type": 0,
        "meta_classification_type": "U",
        "meta_norad_cat_id": 29974,
        "meta_element_set_no": 999,
        "meta_rev_at_epoch": 96889,
        "meta_bstar": 0.0016283015,
        "meta_mean_motion_dot": 3.132e-05,
        "meta_mean_motion_ddot": 0,
        "tle_line1": "1 29974U 99025KY  25344.19353348  .00003132  00000+0  16283-2 0  9990",
        "tle_line2": "2 29974  98.8935  68.3764 0046913  89.3474 332.9290 14.14829732968896"
      },
      "geometry": {
        "type": "Point",
        "coordinates": [
          -142.1803874663544,
          -73.19512678253837
        ]
      }
    }
  ]
}